[{"OBJECT_NAME":"STARLINK-2196","OBJECT_ID":"2021-017BD","EPOCH":"2026-03-09T17:13:50.073888","MEAN_MOTION":15.30182626,"ECCENTRICITY":0.00012684,"INCLINATION":53.1609,"RA_OF_ASC_NODE":216.5872,"ARG_OF_PERICENTER":64.4271,"MEAN_ANOMALY":295.686,"EPHEMERIS_TYPE":0,"CLASSIFICATION_TYPE":"U","NORAD_CAT_ID":47773,"ELEMENT_SET_NO":999,"REV_AT_EPOCH":27766,"BSTAR":-0.00014318495,"MEAN_MOTION_DOT":-4.595e-5,"MEAN_MOTION_DDOT":0},{"OBJECT_NAME":"TIANMU-1 20","OBJECT_ID":"2023-208B","EPOCH":"2026-03-09T21:50:45.859200","MEAN_MOTION":15.31029249,"ECCENTRICITY":0.00061925,"INCLINATION":97.4323,"RA_OF_ASC_NODE":185.4313,"ARG_OF_PERICENTER":324.1763,"MEAN_ANOMALY":35.9062,"EPHEMERIS_TYPE":0,"CLASSIFICATION_TYPE":"U","NORAD_CAT_ID":58661,"ELEMENT_SET_NO":999,"REV_AT_EPOCH":12222,"BSTAR":0.0003681641,"MEAN_MOTION_DOT":0.00010969,"MEAN_MOTION_DDOT":0}]
